{
    "links": {
        "self": "http://www.neowsapp.com/rest/v1/neo/3775177?api_key=iIulBulltgU6a56xZRHN4H3l9WmuAYTsLGpBGhQ2"
    },
    "id": "3775177",
    "neo_reference_id": "3775177",
    "name": "(2017 LC)",
    "designation": "2017 LC",
    "nasa_jpl_url": "http://ssd.jpl.nasa.gov/sbdb.cgi?sstr=3775177",
    "absolute_magnitude_h": 22.7,
    "estimated_diameter": {
        "kilometers": {
            "estimated_diameter_min": 0.0766575574,
            "estimated_diameter_max": 0.1714115092
        },
        "meters": {
            "estimated_diameter_min": 76.6575573531,
            "estimated_diameter_max": 171.4115092306
        },
        "miles": {
            "estimated_diameter_min": 0.0476327831,
            "estimated_diameter_max": 0.1065101409
        },
        "feet": {
            "estimated_diameter_min": 251.5011804664,
            "estimated_diameter_max": 562.3737359442
        }
    },
    "is_potentially_hazardous_asteroid": false,
    "close_approach_data": [
        {
            "close_approach_date": "2017-06-30",
            "close_approach_date_full": "2017-Jun-30 14:23",
            "epoch_date_close_approach": 1498832580000,
            "relative_velocity": {
                "kilometers_per_second": "14.1390164654",
                "kilometers_per_hour": "50900.4592754018",
                "miles_per_hour": "31627.5659314295"
            },
            "miss_distance": {
                "astronomical": "0.0619457736",
                "lunar": "24.0969059304",
                "kilometers": "9266955.786062232",
                "miles": "5758219.3132815216"
            },
            "orbiting_body": "Earth"
        }
    ],
    "orbital_data": {
        "orbit_id": "12",
        "orbit_determination_date": "2017-07-17 06:18:45",
        "first_observation_date": "2017-05-30",
        "last_observation_date": "2017-06-26",
        "data_arc_in_days": 27,
        "observations_used": 58,
        "orbit_uncertainty": "7",
        "minimum_orbit_intersection": ".0525966",
        "jupiter_tisserand_invariant": "3.172",
        "epoch_osculation": "2459000.5",
        "eccentricity": ".625774732122365",
        "semi_major_axis": "2.447435306065243",
        "inclination": "12.2275354896315",
        "ascending_node_longitude": "113.8572083410107",
        "orbital_period": "1398.508975628017",
        "perihelion_distance": ".915892133025447",
        "perihelion_argument": "203.5547554842132",
        "aphelion_distance": "3.978978479105038",
        "perihelion_time": "2459361.741208363487",
        "mean_anomaly": "267.0103679867652",
        "mean_motion": ".2574170107405551",
        "equinox": "J2000",
        "orbit_class": {
            "orbit_class_type": "APO",
            "orbit_class_description": "Near-Earth asteroid orbits which cross the Earth’s orbit similar to that of 1862 Apollo",
            "orbit_class_range": "a (semi-major axis) > 1.0 AU; q (perihelion) < 1.017 AU"
        }
    },
    "is_sentry_object": false
}